NORAD_CAT_ID,OBJECT_NAME,OBJECT_TYPE,EPOCH,MEAN_MOTION,ECCENTRICITY,INCLINATION,RA_OF_ASC_NODE,ARG_OF_PERICENTER,MEAN_ANOMALY,BSTAR,MEAN_MOTION_DOT,MEAN_MOTION_DDOT,TLE_LINE0,TLE_LINE1,TLE_LINE2,SEMIMAJOR_AXIS,PERIOD,APOGEE,PERIGEE,DECAYED
52371.0,STARLINK-3798,PAYLOAD,2022-11-26 07:00:18,15.08851227,0.0002917,53.2155,173.4241,41.5213,318.6,9.486e-05,1.222e-05,0.0,0 STARLINK-3798,1 52371U 22045AS  22330.29188459  .00001222  00000-0  94860-4 0  9995,2 52371  53.2155 173.4241 0002917  41.5213 318.6000 15.08851227 34844,6917.846,95.437,541.729,537.693,0.0
52371.0,STARLINK-3798,PAYLOAD,2022-11-26 19:43:24,15.08839498,0.0002826,53.217,171.0453,41.8975,318.2233,-3.4601e-05,-8.39e-06,0.0,0 STARLINK-3798,1 52371U 22045AS  22330.82181413 -.00000839  00000-0 -34601-4 0  9999,2 52371  53.2170 171.0453 0002826  41.8975 318.2233 15.08839498 34926,6917.882,95.438,541.702,537.7919999999998,0.0
52371.0,STARLINK-3798,PAYLOAD,2022-11-27 00:29:33,15.08842196,0.000274,53.2175,170.1518,43.3187,316.802,-4.2481e-05,-9.65e-06,0.0,0 STARLINK-3798,1 52371U 22045AS  22331.02053200 -.00000965  00000-0 -42481-4 0  9999,2 52371  53.2175 170.1518 0002740  43.3187 316.8020 15.08842196 34950,6917.874,95.437,541.634,537.8430000000002,0.0
52371.0,STARLINK-3798,PAYLOAD,2022-11-27 19:34:12,15.088307999999998,0.0003049,53.2166,166.58599999999996,45.8221,314.3021,-8.2869e-05,-1.607e-05,0.0,0 STARLINK-3798,1 52371U 22045AS  22331.81542083 -.00001607  00000-0 -82869-4 0  9996,2 52371  53.2166 166.5860 0003049  45.8221 314.3021 15.08830800 35075,6917.909000000002,95.438,541.883,537.664,0.0
52371.0,STARLINK-3798,PAYLOAD,2022-11-28 14:38:50,15.088314000000002,0.0002819,53.2168,163.0167,41.0661,319.0543,-9.9979e-05,-1.879e-05,0.0,0 STARLINK-3798,1 52371U 22045AS  22332.61030258 -.00001879  00000-0 -99979-4 0  9992,2 52371  53.2168 163.0167 0002819  41.0661 319.0543 15.08831400 35190,6917.906999999997,95.438,541.722,537.822,0.0
52371.0,STARLINK-3798,PAYLOAD,2022-11-28 22:35:45,15.08836139,0.0002895,53.2168,161.5301,41.9854,318.1359,-0.00012075,-2.21e-05,0.0,0 STARLINK-3798,1 52371U 22045AS  22332.94150365 -.00002210  00000-0 -12075-3 0  9991,2 52371  53.2168 161.5301 0002895  41.9854 318.1359 15.08836139 35245,6917.892,95.438,541.76,537.754,0.0
52371.0,STARLINK-3798,PAYLOAD,2022-11-29 12:54:13,15.08854457,0.0002925,53.2165,158.8539,40.6425,319.4785,-0.00033322,-5.59e-05,0.0,0 STARLINK-3798,1 52371U 22045AS  22333.53765935 -.00005590  00000-0 -33322-3 0  9994,2 52371  53.2165 158.8539 0002925  40.6425 319.4785 15.08854457 35338,6917.8359999999975,95.437,541.725,537.678,0.0
52371.0,STARLINK-3798,PAYLOAD,2022-11-29 14:29:37,15.088250899999998,0.0002892,53.2165,158.5565,43.5762,316.5459,6.4685e-05,7.41e-06,0.0,0 STARLINK-3798,1 52371U 22045AS  22333.60390717  .00000741  00000-0  64685-4 0  9992,2 52371  53.2165 158.5565 0002892  43.5762 316.5459 15.08825090 35341,6917.926,95.438,541.7919999999998,537.79,0.0
52371.0,STARLINK-3798,PAYLOAD,2022-11-30 04:48:05,15.08829081,0.0002938,53.2165,155.8802,44.3545,315.7682,7.2482e-05,8.65e-06,0.0,0 STARLINK-3798,1 52371U 22045AS  22334.20006937  .00000865  00000-0  72482-4 0  9998,2 52371  53.2165 155.8802 0002938  44.3545 315.7682 15.08829081 35437,6917.9140000000025,95.438,541.811,537.746,0.0
52371.0,STARLINK-3798,PAYLOAD,2022-11-30 11:09:38,15.08831164,0.0002948,53.2165,154.6907,45.018,315.1051,6.9682e-05,8.2e-06,0.0,0 STARLINK-3798,1 52371U 22045AS  22334.46502999  .00000820  00000-0  69682-4 0  9994,2 52371  53.2165 154.6907 0002948  45.0180 315.1051 15.08831164 35477,6917.906999999997,95.438,541.812,537.7330000000002,0.0
52371.0,STARLINK-3798,PAYLOAD,2022-11-30 19:06:34,15.08832625,0.0002963,53.2165,153.2038,45.8583,314.2653,7.361600000000001e-05,8.83e-06,0.0,0 STARLINK-3798,1 52371U 22045AS  22334.79623055  .00000883  00000-0  73616-4 0  9998,2 52371  53.2165 153.2038 0002963  45.8583 314.2653 15.08832625 35526,6917.903,95.438,541.818,537.7180000000002,0.0
52371.0,STARLINK-3798,PAYLOAD,2022-12-01 12:35:48,15.08839399,0.0002958,53.2167,149.9326,47.1205,313.0035,5.9833e-05,6.64e-06,0.0,0 STARLINK-3798,1 52371U 22045AS  22335.52486865  .00000664  00000-0  59833-4 0  9998,2 52371  53.2167 149.9326 0002958  47.1205 313.0035 15.08839399 35638,6917.882,95.438,541.794,537.701,0.0
52371.0,STARLINK-3798,PAYLOAD,2022-12-02 10:51:11,15.08845691,0.0003011,53.2167,145.7695,49.2249,310.9004,7.7419e-05,9.44e-06,0.0,0 STARLINK-3798,1 52371U 22045AS  22336.45222202  .00000944  00000-0  77419-4 0  9995,2 52371  53.2167 145.7695 0003011  49.2249 310.9004 15.08845691 35772,6917.863,95.437,541.811,537.645,0.0
52371.0,STARLINK-3798,PAYLOAD,2022-12-03 04:20:27,15.08835041,0.0003036,53.2169,142.4982,49.8353,310.2905,-5.0475e-05,-1.092e-05,0.0,0 STARLINK-3798,1 52371U 22045AS  22337.18087328 -.00001092  00000-0 -50475-4 0  9994,2 52371  53.2169 142.4982 0003036  49.8353 310.2905 15.08835041 35889,6917.896,95.438,541.861,537.66,0.0
52371.0,STARLINK-3798,PAYLOAD,2022-12-03 12:17:22,15.08836883,0.0002952,53.2159,141.0102,47.4357,312.6884,8.5058e-06,-1.53e-06,0.0,0 STARLINK-3798,1 52371U 22045AS  22337.51206955 -.00000153  00000-0  85058-5 0  9992,2 52371  53.2159 141.0102 0002952  47.4357 312.6884 15.08836883 35934,6917.89,95.438,541.797,537.7130000000002,0.0
52371.0,STARLINK-3798,PAYLOAD,2022-12-03 20:14:18,15.08843225,0.0002977,53.2167,139.5238,50.2204,309.905,-3.2736999999999995e-05,-8.1e-06,0.0,0 STARLINK-3798,1 52371U 22045AS  22337.84326696 -.00000810  00000-0 -32737-4 0  9999,2 52371  53.2167 139.5238 0002977  50.2204 309.9050 15.08843225 35982,6917.871,95.437,541.795,537.6759999999998,0.0
52371.0,STARLINK-3798,PAYLOAD,2022-12-04 10:32:46,15.08841818,0.000286,53.2173,136.8476,50.2946,309.8298,2.363800000000001e-05,8.8e-07,0.0,0 STARLINK-3798,1 52371U 22045AS  22338.43942354  .00000088  00000-0  23638-4 0  9995,2 52371  53.2173 136.8476 0002860  50.2946 309.8298 15.08841818 36077,6917.875,95.437,541.7180000000002,537.761,0.0
52371.0,STARLINK-3798,PAYLOAD,2022-12-04 16:54:18,15.08846134,0.0002859,53.2171,135.6583,50.6921,309.4325,5.305e-05,5.56e-06,0.0,0 STARLINK-3798,1 52371U 22045AS  22338.70437888  .00000556  00000-0  53050-4 0  9997,2 52371  53.2171 135.6583 0002859  50.6921 309.4325 15.08846134 36114,6917.861999999999,95.437,541.7040000000002,537.749,0.0
52371.0,STARLINK-3798,PAYLOAD,2022-12-05 04:02:01,15.08834256,0.0003086,53.216,133.5773,53.6302,306.4975,-1.8095e-05,-5.77e-06,0.0,0 STARLINK-3798,1 52371U 22045AS  22339.16806987 -.00000577  00000-0 -18095-4 0  9993,2 52371  53.2160 133.5773 0003086  53.6302 306.4975 15.08834256 36186,6917.898,95.438,541.898,537.628,0.0
52371.0,STARLINK-3798,PAYLOAD,2022-12-05 19:55:51,15.08845206,0.0002982,53.2172,130.6043,51.5986,308.5273,4.437e-05,4.18e-06,0.0,0 STARLINK-3798,1 52371U 22045AS  22339.83046061  .00000418  00000-0  44370-4 0  9993,2 52371  53.2172 130.6043 0002982  51.5986 308.5273 15.08845206 36288,6917.864000000001,95.437,541.7919999999998,537.6669999999998,0.0
52371.0,STARLINK-3798,PAYLOAD,2022-12-06 11:49:43,15.088459699999998,0.0003066,53.2175,127.6315,54.5519,305.5759,7.278e-06,-1.73e-06,0.0,0 STARLINK-3798,1 52371U 22045AS  22340.49285929 -.00000173  00000-0  72780-5 0  9991,2 52371  53.2175 127.6315 0003066  54.5519 305.5759 15.08845970 36383,6917.861999999999,95.437,541.8480000000002,537.606,0.0
52371.0,STARLINK-3798,PAYLOAD,2022-12-06 19:46:39,15.08841921,0.0002993,53.217,126.1436,51.7774,308.3487,-4.3479e-05,-9.81e-06,0.0,0 STARLINK-3798,1 52371U 22045AS  22340.82406257 -.00000981  00000-0 -43479-4 0  9997,2 52371  53.2170 126.1436 0002993  51.7774 308.3487 15.08841921 36433,6917.875,95.437,541.81,537.669,0.0
52371.0,STARLINK-3798,PAYLOAD,2022-12-07 10:05:07,15.08832783,0.0002921,53.217,123.4674,51.9796,308.1459,5.0572000000000005e-06,-2.08e-06,0.0,0 STARLINK-3798,1 52371U 22045AS  22341.42022750 -.00000208  00000-0  50572-5 0  9990,2 52371  53.2170 123.4674 0002921  51.9796 308.1459 15.08832783 36527,6917.901999999999,95.438,541.788,537.747,0.0
52371.0,STARLINK-3798,PAYLOAD,2022-12-07 16:26:40,15.08832336,0.00028,53.2179,122.2783,47.7001,312.4228,-3.5953e-05,-8.61e-06,0.0,0 STARLINK-3798,1 52371U 22045AS  22341.68519038 -.00000861  00000-0 -35953-4 0  9999,2 52371  53.2179 122.2783 0002800  47.7001 312.4228 15.08832336 36562,6917.904,95.438,541.706,537.832,0.0
52371.0,STARLINK-3798,PAYLOAD,2022-12-08 09:55:53,15.08842383,0.0002856,53.2175,119.0069,52.3263,307.7988,7.6239e-05,9.25e-06,0.0,0 STARLINK-3798,1 52371U 22045AS  22342.41381918  .00000925  00000-0  76239-4 0  9996,2 52371  53.2175 119.0069 0002856  52.3263 307.7988 15.08842383 36677,6917.873000000001,95.437,541.714,537.762,0.0
52371.0,STARLINK-3798,PAYLOAD,2022-12-08 14:42:03,15.08837704,0.000286,53.2176,118.1151,51.8615,308.2635,3.8034e-05,3.17e-06,0.0,0 STARLINK-3798,1 52371U 22045AS  22342.61254320  .00000317  00000-0  38034-4 0  9990,2 52371  53.2176 118.1151 0002860  51.8615 308.2635 15.08837704 36700,6917.887,95.438,541.731,537.774,0.0
52371.0,STARLINK-3798,PAYLOAD,2022-12-09 19:19:01,15.08818961,0.0002926,53.2183,112.7644,56.1163,304.0107,0.00018987,2.733e-05,0.0,0 STARLINK-3798,1 52371U 22045AS  22343.80487537  .00002733  00000-0  18987-3 0  9998,2 52371  53.2183 112.7644 0002926  56.1163 304.0107 15.08818961 36885,6917.945,95.439,541.8340000000002,537.786,0.0
52371.0,STARLINK-3798,PAYLOAD,2022-12-10 14:23:38,15.0884173,0.0002771,53.2194,109.1945,65.1046,295.0234,7.5241e-06,-1.69e-06,0.0,0 STARLINK-3798,1 52371U 22045AS  22344.59974645 -.00000169  00000-0  75241-5 0  9996,2 52371  53.2194 109.1945 0002771  65.1046 295.0234 15.08841730 37004,6917.875,95.437,541.6569999999998,537.823,0.0
52371.0,STARLINK-3798,PAYLOAD,2022-12-10 15:59:01,15.08854003,0.0003411,53.2182,108.8999,53.6032,306.5275,-0.00020815,-3.602e-05,0.0,0 STARLINK-3798,1 52371U 22045AS  22344.66598878 -.00003602  00000-0 -20815-3 0  9995,2 52371  53.2182 108.8999 0003411  53.6032 306.5275 15.08854003 37016,6917.8380000000025,95.437,542.062,537.3430000000002,0.0
